FENGYUN 1C DEB          
1 36667U 99025DYM 17345.56487635  .00000579  00000-0  41290-3 0  9997
2 36667  97.7728 102.9607 0130526  26.3176 334.4544 13.96423166218815
